{
  "type": "FeatureCollection",
  "features": [
    {
      "type": "Feature",
      "properties": {
        "norad_id": 33844,
        "name": "COSMOS 2251 DEB",
        "group": "cosmos-2251-debris",
        "lat": -46.1998287073077,
        "lon": 50.20137640609513,
        "alt_km": 811.8633655931144,
        "timestamp": "2025-12-04T15:47:54.491887+00:00",
        "meta_object_name": "COSMOS 2251 DEB",
        "meta_object_id": "1993-036CM",
        "meta_epoch": "2025-12-04T07:56:54.898080",
        "meta_mean_motion": 14.33688701,
        "meta_eccentricity": 0.00471522,
        "meta_inclination": 74.0671,
        "meta_ra_of_asc_node": 68.1288,
        "meta_arg_of_pericenter": 92.7433,
        "meta_mean_anomaly": 331.5711,
        "meta_ephemeris_type": 0,
        "meta_classification_type": "U",
        "meta_norad_cat_id": 33844,
        "meta_element_set_no": 999,
        "meta_rev_at_epoch": 87605,
        "meta_bstar": 0.00079348958,
        "meta_mean_motion_dot": 2.204e-05,
        "meta_mean_motion_ddot": 0,
        "tle_line1": "1 33844U 93036CM  25338.33119095  .00002204  00000+0  79349-3 0  9997",
        "tle_line2": "2 33844  74.0671  68.1288 0047152  92.7433 331.5711 14.33688701876057"
      },
      "geometry": {
        "type": "Point",
        "coordinates": [
          50.20137640609513,
          -46.1998287073077
        ]
      }
    },
    {
      "type": "Feature",
      "properties": {
        "norad_id": 33848,
        "name": "COSMOS 2251 DEB",
        "group": "cosmos-2251-debris",
        "lat": -11.18104162386428,
        "lon": -164.07612242840867,
        "alt_km": 763.8705133429985,
        "timestamp": "2025-12-04T15:47:54.491898+00:00",
        "meta_object_name": "COSMOS 2251 DEB",
        "meta_object_id": "1993-036CR",
        "meta_epoch": "2025-12-04T05:14:57.141888",
        "meta_mean_motion": 14.43976485,
        "meta_eccentricity": 0.00409273,
        "meta_inclination": 74.0323,
        "meta_ra_of_asc_node": 13.4968,
        "meta_arg_of_pericenter": 72.3191,
        "meta_mean_anomaly": 354.7827,
        "meta_ephemeris_type": 0,
        "meta_classification_type": "U",
        "meta_norad_cat_id": 33848,
        "meta_element_set_no": 999,
        "meta_rev_at_epoch": 87708,
        "meta_bstar": 0.0021144365,
        "meta_mean_motion_dot": 7.279e-05,
        "meta_mean_motion_ddot": 0,
        "tle_line1": "1 33848U 93036CR  25338.21871692  .00007279  00000+0  21144-2 0  9992",
        "tle_line2": "2 33848  74.0323  13.4968 0040927  72.3191 354.7827 14.43976485877080"
      },
      "geometry": {
        "type": "Point",
        "coordinates": [
          -164.07612242840867,
          -11.18104162386428
        ]
      }
    },
    {
      "type": "Feature",
      "properties": {
        "norad_id": 33892,
        "name": "COSMOS 2251 DEB",
        "group": "cosmos-2251-debris",
        "lat": -3.532935480976205,
        "lon": 115.77231142735765,
        "alt_km": 889.9870358797034,
        "timestamp": "2025-12-04T15:47:54.491908+00:00",
        "meta_object_name": "COSMOS 2251 DEB",
        "meta_object_id": "1993-036CV",
        "meta_epoch": "2025-12-03T09:35:52.194624",
        "meta_mean_motion": 14.23270124,
        "meta_eccentricity": 0.01135731,
        "meta_inclination": 73.802,
        "meta_ra_of_asc_node": 119.0952,
        "meta_arg_of_pericenter": 152.0607,
        "meta_mean_anomaly": 239.9166,
        "meta_ephemeris_type": 0,
        "meta_classification_type": "U",
        "meta_norad_cat_id": 33892,
        "meta_element_set_no": 999,
        "meta_rev_at_epoch": 86822,
        "meta_bstar": 0.0014010506,
        "meta_mean_motion_dot": 3.365e-05,
        "meta_mean_motion_ddot": 0,
        "tle_line1": "1 33892U 93036CV  25337.39990966  .00003365  00000+0  14011-2 0  9992",
        "tle_line2": "2 33892  73.8020 119.0952 0113573 152.0607 239.9166 14.23270124868223"
      },
      "geometry": {
        "type": "Point",
        "coordinates": [
          115.77231142735765,
          -3.532935480976205
        ]
      }
    },
    {
      "type": "Feature",
      "properties": {
        "norad_id": 33894,
        "name": "COSMOS 2251 DEB",
        "group": "cosmos-2251-debris",
        "lat": 0.3606914144046099,
        "lon": 1.692830584344992,
        "alt_km": 1070.656373047983,
        "timestamp": "2025-12-04T15:47:54.491920+00:00",
        "meta_object_name": "COSMOS 2251 DEB",
        "meta_object_id": "1993-036CX",
        "meta_epoch": "2025-12-03T01:38:16.679040",
        "meta_mean_motion": 13.21251697,
        "meta_eccentricity": 0.05793433,
        "meta_inclination": 73.7665,
        "meta_ra_of_asc_node": 4.0465,
        "meta_arg_of_pericenter": 284.7091,
        "meta_mean_anomaly": 69.0497,
        "meta_ephemeris_type": 0,
        "meta_classification_type": "U",
        "meta_norad_cat_id": 33894,
        "meta_element_set_no": 999,
        "meta_rev_at_epoch": 80580,
        "meta_bstar": 0.0024833384,
        "meta_mean_motion_dot": 2.447e-05,
        "meta_mean_motion_ddot": 0,
        "tle_line1": "1 33894U 93036CX  25337.06824860  .00002447  00000+0  24833-2 0  9990",
        "tle_line2": "2 33894  73.7665   4.0465 0579343 284.7091  69.0497 13.21251697805807"
      },
      "geometry": {
        "type": "Point",
        "coordinates": [
          1.692830584344992,
          0.3606914144046099
        ]
      }
    },
    {
      "type": "Feature",
      "properties": {
        "norad_id": 33896,
        "name": "COSMOS 2251 DEB",
        "group": "cosmos-2251-debris",
        "lat": -9.9274537712985,
        "lon": -5.722800884601342,
        "alt_km": 916.6267841393756,
        "timestamp": "2025-12-04T15:47:54.491930+00:00",
        "meta_object_name": "COSMOS 2251 DEB",
        "meta_object_id": "1993-036CZ",
        "meta_epoch": "2025-12-04T07:17:28.398624",
        "meta_mean_motion": 14.19007738,
        "meta_eccentricity": 0.01260489,
        "meta_inclination": 73.766,
        "meta_ra_of_asc_node": 171.9975,
        "meta_arg_of_pericenter": 349.0493,
        "meta_mean_anomaly": 191.6486,
        "meta_ephemeris_type": 0,
        "meta_classification_type": "U",
        "meta_norad_cat_id": 33896,
        "meta_element_set_no": 999,
        "meta_rev_at_epoch": 86620,
        "meta_bstar": 0.0009149752,
        "meta_mean_motion_dot": 2.04e-05,
        "meta_mean_motion_ddot": 0,
        "tle_line1": "1 33896U 93036CZ  25338.30380091  .00002040  00000+0  91498-3 0  9994",
        "tle_line2": "2 33896  73.7660 171.9975 0126048 349.0493 191.6486 14.19007738866209"
      },
      "geometry": {
        "type": "Point",
        "coordinates": [
          -5.722800884601342,
          -9.9274537712985
        ]
      }
    },
    {
      "type": "Feature",
      "properties": {
        "norad_id": 33899,
        "name": "COSMOS 2251 DEB",
        "group": "cosmos-2251-debris",
        "lat": 61.72781625392314,
        "lon": 133.2751089373161,
        "alt_km": 690.0631217461369,
        "timestamp": "2025-12-04T15:47:54.491941+00:00",
        "meta_object_name": "COSMOS 2251 DEB",
        "meta_object_id": "1993-036DC",
        "meta_epoch": "2025-12-04T01:14:55.253760",
        "meta_mean_motion": 14.61037562,
        "meta_eccentricity": 0.0057677,
        "meta_inclination": 74.0533,
        "meta_ra_of_asc_node": 102.3156,
        "meta_arg_of_pericenter": 167.407,
        "meta_mean_anomaly": 312.2659,
        "meta_ephemeris_type": 0,
        "meta_classification_type": "U",
        "meta_norad_cat_id": 33899,
        "meta_element_set_no": 999,
        "meta_rev_at_epoch": 88712,
        "meta_bstar": 0.002362534,
        "meta_mean_motion_dot": 0.00011865,
        "meta_mean_motion_ddot": 0,
        "tle_line1": "1 33899U 93036DC  25338.05202840  .00011865  00000+0  23625-2 0  9995",
        "tle_line2": "2 33899  74.0533 102.3156 0057677 167.4070 312.2659 14.61037562887120"
      },
      "geometry": {
        "type": "Point",
        "coordinates": [
          133.2751089373161,
          61.72781625392314
        ]
      }
    },
    {
      "type": "Feature",
      "properties": {
        "norad_id": 33900,
        "name": "COSMOS 2251 DEB",
        "group": "cosmos-2251-debris",
        "lat": -3.857320183219426,
        "lon": -163.63153286315418,
        "alt_km": 669.310517799524,
        "timestamp": "2025-12-04T15:47:54.491951+00:00",
        "meta_object_name": "COSMOS 2251 DEB",
        "meta_object_id": "1993-036DD",
        "meta_epoch": "2025-12-04T05:22:50.799648",
        "meta_mean_motion": 14.58299624,
        "meta_eccentricity": 0.00473346,
        "meta_inclination": 74.0197,
        "meta_ra_of_asc_node": 16.0879,
        "meta_arg_of_pericenter": 170.5329,
        "meta_mean_anomaly": 255.3433,
        "meta_ephemeris_type": 0,
        "meta_classification_type": "U",
        "meta_norad_cat_id": 33900,
        "meta_element_set_no": 999,
        "meta_rev_at_epoch": 88912,
        "meta_bstar": 0.00088708596,
        "meta_mean_motion_dot": 4.138e-05,
        "meta_mean_motion_ddot": 0,
        "tle_line1": "1 33900U 93036DD  25338.22419907  .00004138  00000+0  88709-3 0  9991",
        "tle_line2": "2 33900  74.0197  16.0879 0047334 170.5329 255.3433 14.58299624889127"
      },
      "geometry": {
        "type": "Point",
        "coordinates": [
          -163.63153286315418,
          -3.857320183219426
        ]
      }
    }
  ]
}